STARLINK-5495           
1 55635U 23021H   26068.70642461  .00000104  00000+0  16540-4 0  9998
2 55635  70.0007 184.4286 0003592 276.1302  83.9448 14.98345366168799
SATGUS                  
1 62713U 25009DJ  26068.70670884  .00009370  00000+0  76063-3 0  9990
2 62713  97.7097 150.9679 0005670  96.3538 263.8332 14.99840473 62643
